[{"OBJECT_NAME":"STARLINK-36954","OBJECT_ID":"2026-041T","EPOCH":"2026-03-20T03:52:16.879008","MEAN_MOTION":15.75289831,"ECCENTRICITY":8.75e-5,"INCLINATION":53.1606,"RA_OF_ASC_NODE":9.728,"ARG_OF_PERICENTER":98.2216,"MEAN_ANOMALY":261.8904,"EPHEMERIS_TYPE":0,"CLASSIFICATION_TYPE":"U","NORAD_CAT_ID":68057,"ELEMENT_SET_NO":999,"REV_AT_EPOCH":287,"BSTAR":0.0015088,"MEAN_MOTION_DOT":0.00237792,"MEAN_MOTION_DDOT":0},{"OBJECT_NAME":"STARLINK-36899","OBJECT_ID":"2026-041U","EPOCH":"2026-03-20T03:46:13.160064","MEAN_MOTION":15.75299575,"ECCENTRICITY":9.31e-5,"INCLINATION":53.1604,"RA_OF_ASC_NODE":9.6992,"ARG_OF_PERICENTER":114.9456,"MEAN_ANOMALY":245.1661,"EPHEMERIS_TYPE":0,"CLASSIFICATION_TYPE":"U","NORAD_CAT_ID":68058,"ELEMENT_SET_NO":999,"REV_AT_EPOCH":287,"BSTAR":0.0016482,"MEAN_MOTION_DOT":0.00260637,"MEAN_MOTION_DDOT":0},{"OBJECT_NAME":"STARLINK-36917","OBJECT_ID":"2026-041V","EPOCH":"2026-03-20T02:00:03.000384","MEAN_MOTION":15.75232026,"ECCENTRICITY":0.000112,"INCLINATION":53.1598,"RA_OF_ASC_NODE":9.9572,"ARG_OF_PERICENTER":76.0914,"MEAN_ANOMALY":279.067,"EPHEMERIS_TYPE":0,"CLASSIFICATION_TYPE":"U","NORAD_CAT_ID":68059,"ELEMENT_SET_NO":999,"REV_AT_EPOCH":404,"BSTAR":-7.9324e-5,"MEAN_MOTION_DOT":-0.00012776,"MEAN_MOTION_DDOT":0},{"OBJECT_NAME":"STARLINK-36959","OBJECT_ID":"2026-041W","EPOCH":"2026-03-20T02:00:03.000384","MEAN_MOTION":15.75259424,"ECCENTRICITY":8.81e-5,"INCLINATION":53.1597,"RA_OF_ASC_NODE":10.0126,"ARG_OF_PERICENTER":75.3288,"MEAN_ANOMALY":252.1934,"EPHEMERIS_TYPE":0,"CLASSIFICATION_TYPE":"U","NORAD_CAT_ID":68060,"ELEMENT_SET_NO":999,"REV_AT_EPOCH":404,"BSTAR":-0.00024917,"MEAN_MOTION_DOT":-0.00038693,"MEAN_MOTION_DDOT":0},{"OBJECT_NAME":"STARLINK-36915","OBJECT_ID":"2026-041X","EPOCH":"2026-03-20T04:52:33.468960","MEAN_MOTION":15.80919933,"ECCENTRICITY":9.07e-5,"INCLINATION":53.1597,"RA_OF_ASC_NODE":9.2671,"ARG_OF_PERICENTER":92.8739,"MEAN_ANOMALY":267.2388,"EPHEMERIS_TYPE":0,"CLASSIFICATION_TYPE":"U","NORAD_CAT_ID":68061,"ELEMENT_SET_NO":999,"REV_AT_EPOCH":288,"BSTAR":0.00069655,"MEAN_MOTION_DOT":0.00139317,"MEAN_MOTION_DDOT":0},{"OBJECT_NAME":"STARLINK-36952","OBJECT_ID":"2026-041Y","EPOCH":"2026-03-20T03:45:44.407008","MEAN_MOTION":15.75296907,"ECCENTRICITY":8.79e-5,"INCLINATION":53.1605,"RA_OF_ASC_NODE":9.6975,"ARG_OF_PERICENTER":120.7528,"MEAN_ANOMALY":239.3579,"EPHEMERIS_TYPE":0,"CLASSIFICATION_TYPE":"U","NORAD_CAT_ID":68062,"ELEMENT_SET_NO":999,"REV_AT_EPOCH":287,"BSTAR":0.0011746,"MEAN_MOTION_DOT":0.00183834,"MEAN_MOTION_DDOT":0},{"OBJECT_NAME":"STARLINK-37000","OBJECT_ID":"2026-041Z","EPOCH":"2026-03-19T09:06:55.838880","MEAN_MOTION":15.80839388,"ECCENTRICITY":3.875e-5,"INCLINATION":53.1597,"RA_OF_ASC_NODE":13.3751,"ARG_OF_PERICENTER":129.0929,"MEAN_ANOMALY":231.0129,"EPHEMERIS_TYPE":0,"CLASSIFICATION_TYPE":"U","NORAD_CAT_ID":68063,"ELEMENT_SET_NO":999,"REV_AT_EPOCH":275,"BSTAR":-0.00012107026,"MEAN_MOTION_DOT":-0.00024486,"MEAN_MOTION_DDOT":0},{"OBJECT_NAME":"STARLINK-36996","OBJECT_ID":"2026-041AA","EPOCH":"2026-03-20T04:49:19.030080","MEAN_MOTION":15.80954059,"ECCENTRICITY":9.31e-5,"INCLINATION":53.1596,"RA_OF_ASC_NODE":9.2519,"ARG_OF_PERICENTER":94.1441,"MEAN_ANOMALY":265.9689,"EPHEMERIS_TYPE":0,"CLASSIFICATION_TYPE":"U","NORAD_CAT_ID":68064,"ELEMENT_SET_NO":999,"REV_AT_EPOCH":288,"BSTAR":0.0011928,"MEAN_MOTION_DOT":0.00242353,"MEAN_MOTION_DDOT":0},{"OBJECT_NAME":"STARLINK-36836","OBJECT_ID":"2026-041AB","EPOCH":"2026-03-20T04:47:09.494880","MEAN_MOTION":15.80929834,"ECCENTRICITY":0.0001035,"INCLINATION":53.1597,"RA_OF_ASC_NODE":9.2411,"ARG_OF_PERICENTER":75.8994,"MEAN_ANOMALY":284.2144,"EPHEMERIS_TYPE":0,"CLASSIFICATION_TYPE":"U","NORAD_CAT_ID":68065,"ELEMENT_SET_NO":999,"REV_AT_EPOCH":288,"BSTAR":0.00080879,"MEAN_MOTION_DOT":0.00162391,"MEAN_MOTION_DDOT":0},{"OBJECT_NAME":"STARLINK-36976","OBJECT_ID":"2026-041AC","EPOCH":"2026-03-20T02:00:03.000384","MEAN_MOTION":15.75243899,"ECCENTRICITY":0.000109,"INCLINATION":53.1597,"RA_OF_ASC_NODE":9.9593,"ARG_OF_PERICENTER":97.3339,"MEAN_ANOMALY":255.9545,"EPHEMERIS_TYPE":0,"CLASSIFICATION_TYPE":"U","NORAD_CAT_ID":68066,"ELEMENT_SET_NO":999,"REV_AT_EPOCH":404,"BSTAR":-9.996e-5,"MEAN_MOTION_DOT":-0.00015936,"MEAN_MOTION_DDOT":0},{"OBJECT_NAME":"STARLINK-36929","OBJECT_ID":"2026-041AD","EPOCH":"2026-03-20T03:39:12.212352","MEAN_MOTION":15.75306112,"ECCENTRICITY":7.24e-5,"INCLINATION":53.1602,"RA_OF_ASC_NODE":9.6655,"ARG_OF_PERICENTER":104.1378,"MEAN_ANOMALY":255.9723,"EPHEMERIS_TYPE":0,"CLASSIFICATION_TYPE":"U","NORAD_CAT_ID":68067,"ELEMENT_SET_NO":999,"REV_AT_EPOCH":287,"BSTAR":0.0013668,"MEAN_MOTION_DOT":0.00214913,"MEAN_MOTION_DDOT":0},{"OBJECT_NAME":"STARLINK-36990","OBJECT_ID":"2026-041AE","EPOCH":"2026-03-20T04:44:59.874144","MEAN_MOTION":15.80927261,"ECCENTRICITY":8.46e-5,"INCLINATION":53.1597,"RA_OF_ASC_NODE":9.2305,"ARG_OF_PERICENTER":99.5279,"MEAN_ANOMALY":260.584,"EPHEMERIS_TYPE":0,"CLASSIFICATION_TYPE":"U","NORAD_CAT_ID":68068,"ELEMENT_SET_NO":999,"REV_AT_EPOCH":288,"BSTAR":0.00083617,"MEAN_MOTION_DOT":0.00168002,"MEAN_MOTION_DDOT":0},{"OBJECT_NAME":"STARLINK-36766","OBJECT_ID":"2026-042A","EPOCH":"2026-03-19T20:00:01.999872","MEAN_MOTION":15.80899428,"ECCENTRICITY":0.00012909,"INCLINATION":53.1583,"RA_OF_ASC_NODE":143.9438,"ARG_OF_PERICENTER":81.3936,"MEAN_ANOMALY":44.065,"EPHEMERIS_TYPE":0,"CLASSIFICATION_TYPE":"U","NORAD_CAT_ID":68069,"ELEMENT_SET_NO":999,"REV_AT_EPOCH":367,"BSTAR":-0.00026391102,"MEAN_MOTION_DOT":-0.00052535,"MEAN_MOTION_DDOT":0},{"OBJECT_NAME":"STARLINK-36823","OBJECT_ID":"2026-042B","EPOCH":"2026-03-19T20:00:01.999872","MEAN_MOTION":15.80932703,"ECCENTRICITY":0.00013204,"INCLINATION":53.158,"RA_OF_ASC_NODE":143.9347,"ARG_OF_PERICENTER":102.2803,"MEAN_ANOMALY":27.4442,"EPHEMERIS_TYPE":0,"CLASSIFICATION_TYPE":"U","NORAD_CAT_ID":68070,"ELEMENT_SET_NO":999,"REV_AT_EPOCH":367,"BSTAR":-0.00063819788,"MEAN_MOTION_DOT":-0.00125199,"MEAN_MOTION_DDOT":0},{"OBJECT_NAME":"STARLINK-36970","OBJECT_ID":"2026-042C","EPOCH":"2026-03-19T20:00:01.999872","MEAN_MOTION":15.80901346,"ECCENTRICITY":0.00012293,"INCLINATION":53.158,"RA_OF_ASC_NODE":143.917,"ARG_OF_PERICENTER":89.5448,"MEAN_ANOMALY":48.7292,"EPHEMERIS_TYPE":0,"CLASSIFICATION_TYPE":"U","NORAD_CAT_ID":68071,"ELEMENT_SET_NO":999,"REV_AT_EPOCH":368,"BSTAR":-0.00020651718,"MEAN_MOTION_DOT":-0.00041318,"MEAN_MOTION_DDOT":0},{"OBJECT_NAME":"STARLINK-36972","OBJECT_ID":"2026-042D","EPOCH":"2026-03-19T20:00:01.999872","MEAN_MOTION":15.80898852,"ECCENTRICITY":0.00011775,"INCLINATION":53.1581,"RA_OF_ASC_NODE":143.9262,"ARG_OF_PERICENTER":81.7478,"MEAN_ANOMALY":52.2538,"EPHEMERIS_TYPE":0,"CLASSIFICATION_TYPE":"U","NORAD_CAT_ID":68072,"ELEMENT_SET_NO":999,"REV_AT_EPOCH":368,"BSTAR":-0.0002877169,"MEAN_MOTION_DOT":-0.00057178,"MEAN_MOTION_DDOT":0},{"OBJECT_NAME":"STARLINK-37074","OBJECT_ID":"2026-042E","EPOCH":"2026-03-19T20:00:01.999872","MEAN_MOTION":15.80757084,"ECCENTRICITY":0.0001068,"INCLINATION":53.1581,"RA_OF_ASC_NODE":143.9085,"ARG_OF_PERICENTER":56.6629,"MEAN_ANOMALY":86.0365,"EPHEMERIS_TYPE":0,"CLASSIFICATION_TYPE":"U","NORAD_CAT_ID":68073,"ELEMENT_SET_NO":999,"REV_AT_EPOCH":368,"BSTAR":0.00029523369,"MEAN_MOTION_DOT":0.00057649,"MEAN_MOTION_DDOT":0},{"OBJECT_NAME":"STARLINK-37045","OBJECT_ID":"2026-042F","EPOCH":"2026-03-19T20:00:01.999872","MEAN_MOTION":15.80923984,"ECCENTRICITY":0.00011709,"INCLINATION":53.158,"RA_OF_ASC_NODE":143.8998,"ARG_OF_PERICENTER":93.8883,"MEAN_ANOMALY":52.9218,"EPHEMERIS_TYPE":0,"CLASSIFICATION_TYPE":"U","NORAD_CAT_ID":68074,"ELEMENT_SET_NO":999,"REV_AT_EPOCH":368,"BSTAR":-0.00045111192,"MEAN_MOTION_DOT":-0.00089031,"MEAN_MOTION_DDOT":0},{"OBJECT_NAME":"STARLINK-37026","OBJECT_ID":"2026-042G","EPOCH":"2026-03-19T20:00:01.999872","MEAN_MOTION":15.75265332,"ECCENTRICITY":0.00011445,"INCLINATION":53.1639,"RA_OF_ASC_NODE":143.9615,"ARG_OF_PERICENTER":68.5544,"MEAN_ANOMALY":47.4583,"EPHEMERIS_TYPE":0,"CLASSIFICATION_TYPE":"U","NORAD_CAT_ID":68075,"ELEMENT_SET_NO":999,"REV_AT_EPOCH":368,"BSTAR":-0.00045239695,"MEAN_MOTION_DOT":-0.00069498,"MEAN_MOTION_DDOT":0},{"OBJECT_NAME":"STARLINK-37023","OBJECT_ID":"2026-042H","EPOCH":"2026-03-19T20:00:01.999872","MEAN_MOTION":15.75643586,"ECCENTRICITY":7.774e-5,"INCLINATION":53.1585,"RA_OF_ASC_NODE":143.9009,"ARG_OF_PERICENTER":72.5305,"MEAN_ANOMALY":72.75,"EPHEMERIS_TYPE":0,"CLASSIFICATION_TYPE":"U","NORAD_CAT_ID":68076,"ELEMENT_SET_NO":999,"REV_AT_EPOCH":368,"BSTAR":-0.0043120785,"MEAN_MOTION_DOT":-0.00625912,"MEAN_MOTION_DDOT":0},{"OBJECT_NAME":"STARLINK-37036","OBJECT_ID":"2026-042J","EPOCH":"2026-03-19T20:00:01.999872","MEAN_MOTION":15.75222336,"ECCENTRICITY":0.00017034,"INCLINATION":53.1583,"RA_OF_ASC_NODE":143.9044,"ARG_OF_PERICENTER":67.1496,"MEAN_ANOMALY":76.4703,"EPHEMERIS_TYPE":0,"CLASSIFICATION_TYPE":"U","NORAD_CAT_ID":68077,"ELEMENT_SET_NO":999,"REV_AT_EPOCH":368,"BSTAR":8.5852951e-5,"MEAN_MOTION_DOT":0.0001253,"MEAN_MOTION_DDOT":0},{"OBJECT_NAME":"STARLINK-36973","OBJECT_ID":"2026-042K","EPOCH":"2026-03-19T20:00:01.999872","MEAN_MOTION":15.80913055,"ECCENTRICITY":0.00012307,"INCLINATION":53.1581,"RA_OF_ASC_NODE":143.8557,"ARG_OF_PERICENTER":90.8038,"MEAN_ANOMALY":77.3668,"EPHEMERIS_TYPE":0,"CLASSIFICATION_TYPE":"U","NORAD_CAT_ID":68078,"ELEMENT_SET_NO":999,"REV_AT_EPOCH":368,"BSTAR":-0.00027315903,"MEAN_MOTION_DOT":-0.00054374,"MEAN_MOTION_DDOT":0},{"OBJECT_NAME":"STARLINK-37063","OBJECT_ID":"2026-042L","EPOCH":"2026-03-19T20:00:01.999872","MEAN_MOTION":15.8093697,"ECCENTRICITY":0.00012094,"INCLINATION":53.1579,"RA_OF_ASC_NODE":143.864,"ARG_OF_PERICENTER":94.2636,"MEAN_ANOMALY":69.6365,"EPHEMERIS_TYPE":0,"CLASSIFICATION_TYPE":"U","NORAD_CAT_ID":68079,"ELEMENT_SET_NO":999,"REV_AT_EPOCH":368,"BSTAR":-0.00072083822,"MEAN_MOTION_DOT":-0.00141089,"MEAN_MOTION_DDOT":0}]
